start=new Date('2023-03-21T00:00:00.000Z').valueOf();
sats=[{"OBJECT_ID":"2022-017BA","SEMIMAJOR_AXIS":"6917.839","MEAN_ANOMALY":"267.6800","EPOCH":"2023-03-20T13:07:26.138784","MEAN_ELEMENT_THEORY":"SGP4","DECAY_DATE":null,"COUNTRY_CODE":"US","OBJECT_NAME":"STARLINK-3603","PERIAPSIS":"538.842","FILE":"3865912","TLE_LINE2":"2 51816  53.2166 160.5176 0001245  92.4334 267.6800 15.08853689 60311","PERIOD":"95.437","RA_OF_ASC_NODE":"160.5176","APOAPSIS":"540.565","ECCENTRICITY":"0.00012450","REF_FRAME":"TEME","INCLINATION":"53.2166","REV_AT_EPOCH":"6031","GP_ID":"228518017","TIME_SYSTEM":"UTC","CLASSIFICATION_TYPE":"U","MEAN_MOTION_DDOT":"0.0000000000000","ELEMENT_SET_NO":"999","BSTAR":"-0.00007793900000","CENTER_NAME":"EARTH","TLE_LINE1":"1 51816U 22017BA  23079.54683031 -.00001529  00000-0 -77939-4 0  9992","MEAN_MOTION":"15.08853689","EPHEMERIS_TYPE":"0","OBJECT_TYPE":"PAYLOAD","ARG_OF_PERICENTER":"92.4334","LAUNCH_DATE":"2022-02-25","SITE":"AFWTR","MEAN_MOTION_DOT":"-0.00001529","RCS_SIZE":"LARGE","NORAD_CAT_ID":"51816"},{"EPOCH":"2023-03-20T12:55:42.672576","MEAN_ANOMALY":"287.6039","MEAN_ELEMENT_THEORY":"SGP4","OBJECT_ID":"2022-017BB","SEMIMAJOR_AXIS":"6717.927","COUNTRY_CODE":"US","DECAY_DATE":null,"PERIAPSIS":"339.072","FILE":"3865928","OBJECT_NAME":"STARLINK-3596","REF_FRAME":"TEME","RA_OF_ASC_NODE":"10.9690","APOAPSIS":"340.513","ECCENTRICITY":"0.00010720","INCLINATION":"53.1881","PERIOD":"91.330","TLE_LINE2":"2 51817  53.1881  10.9690 0001072  72.5100 287.6039 15.76702647 62468","MEAN_MOTION_DDOT":"0.0000000000000","BSTAR":"-0.00002882900000","CLASSIFICATION_TYPE":"U","ELEMENT_SET_NO":"999","GP_ID":"228520729","REV_AT_EPOCH":"6246","TIME_SYSTEM":"UTC","CENTER_NAME":"EARTH","LAUNCH_DATE":"2022-02-25","ARG_OF_PERICENTER":"72.5100","OBJECT_TYPE":"PAYLOAD","MEAN_MOTION":"15.76702647","TLE_LINE1":"1 51817U 22017BB  23079.53868834 -.00005363  00000-0 -28829-4 0  9992","EPHEMERIS_TYPE":"0","NORAD_CAT_ID":"51817","RCS_SIZE":"LARGE","MEAN_MOTION_DOT":"-0.00005363","SITE":"AFWTR"},{"EPOCH":"2023-03-20T15:23:53.450304","MEAN_ANOMALY":"267.5774","MEAN_ELEMENT_THEORY":"SGP4","OBJECT_ID":"2022-022A","SEMIMAJOR_AXIS":"6917.857","COUNTRY_CODE":"US","DECAY_DATE":null,"PERIAPSIS":"538.758","FILE":"3866115","OBJECT_NAME":"STARLINK-3542","RA_OF_ASC_NODE":"210.0887","APOAPSIS":"540.686","ECCENTRICITY":"0.00013930","REF_FRAME":"TEME","INCLINATION":"53.2161","PERIOD":"95.437","TLE_LINE2":"2 51852  53.2161 210.0887 0001393  92.5378 267.5774 15.08847627 57959","MEAN_MOTION_DDOT":"0.0000000000000","ELEMENT_SET_NO":"999","CLASSIFICATION_TYPE":"U","BSTAR":"0.00064905000000","REV_AT_EPOCH":"5795","GP_ID":"228549073","TIME_SYSTEM":"UTC","CENTER_NAME":"EARTH","OBJECT_TYPE":"PAYLOAD","ARG_OF_PERICENTER":"92.5378","LAUNCH_DATE":"2022-03-03","TLE_LINE1":"1 51852U 22022A   23079.64159086  .00010059  00000-0  64905-3 0  9991","MEAN_MOTION":"15.08847627","EPHEMERIS_TYPE":"0","RCS_SIZE":"LARGE","NORAD_CAT_ID":"51852","SITE":"AFETR","MEAN_MOTION_DOT":"0.00010059"},{"MEAN_MOTION_DDOT":"0.0000000000000","CLASSIFICATION_TYPE":"U","ELEMENT_SET_NO":"999","BSTAR":"0.00056314000000","GP_ID":"228548818","REV_AT_EPOCH":"5914","TIME_SYSTEM":"UTC","CENTER_NAME":"EARTH","ARG_OF_PERICENTER":"103.9306","LAUNCH_DATE":"2022-03-03","OBJECT_TYPE":"PAYLOAD","MEAN_MOTION":"15.08840913","TLE_LINE1":"1 51853U 22022B   23079.57999143  .00008686  00000-0  56314-3 0  9998","EPHEMERIS_TYPE":"0","NORAD_CAT_ID":"51853","RCS_SIZE":"LARGE","MEAN_MOTION_DOT":"0.00008686","SITE":"AFETR","EPOCH":"2023-03-20T13:55:11.259552","MEAN_ANOMALY":"256.1838","MEAN_ELEMENT_THEORY":"SGP4","OBJECT_ID":"2022-022B","SEMIMAJOR_AXIS":"6917.878","COUNTRY_CODE":"US","DECAY_DATE":null,"PERIAPSIS":"538.798","FILE":"3866115","OBJECT_NAME":"STARLINK-3539","REF_FRAME":"TEME","ECCENTRICITY":"0.00013660","APOAPSIS":"540.688","RA_OF_ASC_NODE":"210.3719","INCLINATION":"53.2155","TLE_LINE2":"2 51853  53.2155 210.3719 0001366 103.9306 256.1838 15.08840913 59147","PERIOD":"95.437"},{"BSTAR":"0.00096616000000","MEAN_MOTION_DDOT":"0.0000000000000","CLASSIFICATION_TYPE":"U","ELEMENT_SET_NO":"999","TIME_SYSTEM":"UTC","REV_AT_EPOCH":"5921","GP_ID":"228547572","CENTER_NAME":"EARTH","OBJECT_TYPE":"PAYLOAD","ARG_OF_PERICENTER":"96.5779","LAUNCH_DATE":"2022-03-03","EPHEMERIS_TYPE":"0","TLE_LINE1":"1 51854U 22022C   23079.63791251  .00015123  00000-0  96616-3 0  9999","MEAN_MOTION":"15.08843400","RCS_SIZE":"LARGE","NORAD_CAT_ID":"51854","SITE":"AFETR","MEAN_MOTION_DOT":"0.00015123","MEAN_ELEMENT_THEORY":"SGP4","EPOCH":"2023-03-20T15:18:35.640864","MEAN_ANOMALY":"263.5390","SEMIMAJOR_AXIS":"6917.870","OBJECT_ID":"2022-022C","COUNTRY_CODE":"US","DECAY_DATE":null,"FILE":"3866115","PERIAPSIS":"538.662","OBJECT_NAME":"STARLINK-3541","INCLINATION":"53.2166","ECCENTRICITY":"0.00015510","APOAPSIS":"540.808","RA_OF_ASC_NODE":"210.1051","REF_FRAME":"TEME","PERIOD":"95.437","TLE_LINE2":"2 51854  53.2166 210.1051 0001551  96.5779 263.5390 15.08843400 59211"},{"OBJECT_NAME":"STARLINK-3545","PERIAPSIS":"536.842","FILE":"3866115","TLE_LINE2":"2 51855  53.2161 210.1524 0004146   8.6405 351.4658 15.08851431 59166","PERIOD":"95.437","REF_FRAME":"TEME","RA_OF_ASC_NODE":"210.1524","APOAPSIS":"542.579","ECCENTRICITY":"0.00041460","INCLINATION":"53.2161","OBJECT_ID":"2022-022D","SEMIMAJOR_AXIS":"6917.845","MEAN_ANOMALY":"351.4658","EPOCH":"2023-03-20T15:07:58.624896","MEAN_ELEMENT_THEORY":"SGP4","DECAY_DATE":null,"COUNTRY_CODE":"US","MEAN_MOTION":"15.08851431","TLE_LINE1":"1 51855U 22022D   23079.63053964  .00004700  00000-0  31311-3 0  9992","EPHEMERIS_TYPE":"0","ARG_OF_PERICENTER":"8.6405","LAUNCH_DATE":"2022-03-03","OBJECT_TYPE":"PAYLOAD","MEAN_MOTION_DOT":"0.00004700","SITE":"AFETR","NORAD_CAT_ID":"51855","RCS_SIZE":"LARGE","REV_AT_EPOCH":"5916","GP_ID":"228548322","TIME_SYSTEM":"UTC","MEAN_MOTION_DDOT":"0.0000000000000","ELEMENT_SET_NO":"999","CLASSIFICATION_TYPE":"U","BSTAR":"0.00031311000000","CENTER_NAME":"EARTH"},{"MEAN_MOTION_DDOT":"0.0000000000000","CLASSIFICATION_TYPE":"U","BSTAR":"0.00116940000000","ELEMENT_SET_NO":"999","REV_AT_EPOCH":"5924","GP_ID":"228548573","TIME_SYSTEM":"UTC","CENTER_NAME":"EARTH","OBJECT_TYPE":"PAYLOAD","ARG_OF_PERICENTER":"68.0748","LAUNCH_DATE":"2022-03-03","TLE_LINE1":"1 51856U 22022E   23079.63423409  .00018384  00000-0  11694-2 0  9992","MEAN_MOTION":"15.08863500","EPHEMERIS_TYPE":"0","NORAD_CAT_ID":"51856","RCS_SIZE":"LARGE","SITE":"AFETR","MEAN_MOTION_DOT":"0.00018384","MEAN_ANOMALY":"292.0376","EPOCH":"2023-03-20T15:13:17.825376","MEAN_ELEMENT_THEORY":"SGP4","OBJECT_ID":"2022-022E","SEMIMAJOR_AXIS":"6917.809","COUNTRY_CODE":"US","DECAY_DATE":null,"PERIAPSIS":"538.814","FILE":"3866115","OBJECT_NAME":"STARLINK-3568","APOAPSIS":"540.533","RA_OF_ASC_NODE":"210.1215","ECCENTRICITY":"0.00012430","REF_FRAME":"TEME","INCLINATION":"53.2152","PERIOD":"95.436","TLE_LINE2":"2 51856  53.2152 210.1215 0001243  68.0748 292.0376 15.08863500 59245"},{"INCLINATION":"53.2150","REF_FRAME":"TEME","RA_OF_ASC_NODE":"210.1738","APOAPSIS":"540.748","ECCENTRICITY":"0.00014970","PERIOD":"95.437","TLE_LINE2":"2 51857  53.2150 210.1738 0001497  57.3030 302.8106 15.08850948 59210","FILE":"3866115","PERIAPSIS":"538.676","OBJECT_NAME":"STARLINK-3571","COUNTRY_CODE":"US","DECAY_DATE":null,"MEAN_ELEMENT_THEORY":"SGP4","MEAN_ANOMALY":"302.8106","EPOCH":"2023-03-20T14:57:24.081696","SEMIMAJOR_AXIS":"6917.847","OBJECT_ID":"2022-022F","RCS_SIZE":"LARGE","NORAD_CAT_ID":"51857","MEAN_MOTION_DOT":"0.00009651","SITE":"AFETR","LAUNCH_DATE":"2022-03-03","ARG_OF_PERICENTER":"57.3030","OBJECT_TYPE":"PAYLOAD","EPHEMERIS_TYPE":"0","MEAN_MOTION":"15.08850948","TLE_LINE1":"1 51857U 22022F   23079.62319539  .00009651  00000-0  62342-3 0  9994","CENTER_NAME":"EARTH","CLASSIFICATION_TYPE":"U","MEAN_MOTION_DDOT":"0.0000000000000","ELEMENT_SET_NO":"999","BSTAR":"0.00062342000000","TIME_SYSTEM":"UTC","GP_ID":"228549319","REV_AT_EPOCH":"5921"},{"COUNTRY_CODE":"US","DECAY_DATE":null,"MEAN_ELEMENT_THEORY":"SGP4","MEAN_ANOMALY":"275.0468","EPOCH":"2023-03-20T15:02:41.748576","SEMIMAJOR_AXIS":"6917.863","OBJECT_ID":"2022-022G","INCLINATION":"53.2148","APOAPSIS":"540.509","RA_OF_ASC_NODE":"210.1558","ECCENTRICITY":"0.00011290","REF_FRAME":"TEME","TLE_LINE2":"2 51858  53.2148 210.1558 0001129  85.0653 275.0468 15.08845785 59214","PERIOD":"95.437","FILE":"3866115","PERIAPSIS":"538.947","OBJECT_NAME":"STARLINK-3563","CENTER_NAME":"EARTH","ELEMENT_SET_NO":"999","MEAN_MOTION_DDOT":"0.0000000000000","CLASSIFICATION_TYPE":"U","BSTAR":"0.00054163000000","TIME_SYSTEM":"UTC","GP_ID":"228548072","REV_AT_EPOCH":"5921","RCS_SIZE":"LARGE","NORAD_CAT_ID":"51858","SITE":"AFETR","MEAN_MOTION_DOT":"0.00008344","OBJECT_TYPE":"PAYLOAD","ARG_OF_PERICENTER":"85.0653","LAUNCH_DATE":"2022-03-03","EPHEMERIS_TYPE":"0","TLE_LINE1":"1 51858U 22022G   23079.62687209  .00008344  00000-0  54163-3 0  9997","MEAN_MOTION":"15.08845785"},{"INCLINATION":"53.2156","REF_FRAME":"TEME","APOAPSIS":"540.862","ECCENTRICITY":"0.00016200","RA_OF_ASC_NODE":"200.0930","PERIOD":"95.437","TLE_LINE2":"2 51859  53.2156 200.0930 0001620  92.2307 267.8871 15.08841306 59355","FILE":"3866115","PERIAPSIS":"538.621","OBJECT_NAME":"STARLINK-3560","COUNTRY_CODE":"US","DECAY_DATE":null,"MEAN_ELEMENT_THEORY":"SGP4","EPOCH":"2023-03-20T15:26:35.776032","MEAN_ANOMALY":"267.8871","SEMIMAJOR_AXIS":"6917.876","OBJECT_ID":"2022-022H","NORAD_CAT_ID":"51859","RCS_SIZE":"LARGE","MEAN_MOTION_DOT":"0.00003363","SITE":"AFETR","ARG_OF_PERICENTER":"92.2307","LAUNCH_DATE":"2022-03-03","OBJECT_TYPE":"PAYLOAD","EPHEMERIS_TYPE":"0","MEAN_MOTION":"15.08841306","TLE_LINE1":"1 51859U 22022H   23079.64346963  .00003363  00000-0  22931-3 0  9993","CENTER_NAME":"EARTH","MEAN_MOTION_DDOT":"0.0000000000000","CLASSIFICATION_TYPE":"U","ELEMENT_SET_NO":"999","BSTAR":"0.00022931000000","TIME_SYSTEM":"UTC","REV_AT_EPOCH":"5935","GP_ID":"228547822"}];
